[
    {
        "Altitude(m)": 624790.7752103354,
        "Argument of Periapsis(deg)": 0.0,
        "Eccentricity": 0.0,
        "Inclination(deg)": 60.0,
        "Latitude(deg)": -59.14705540742133,
        "Longitude(deg)": 131.03451944091987,
        "Mean Anomaly(deg)": -81.81819999999996,
        "RAAN(deg)": 305.0,
        "Satellite Name": "Test1 1359",
        "Satellite Number": 1359,
        "Semi-Major Axis(m)": 6980739.136638005,
        "Time(s)": 0
    },
    {
        "Altitude(m)": 624737.4305622156,
        "Argument of Periapsis(deg)": 0.00010418945913296404,
        "Eccentricity": 0.0,
        "Inclination(deg)": 60.0,
        "Latitude(deg)": -58.994511574216794,
        "Longitude(deg)": 132.15402006346824,
        "Mean Anomaly(deg)": -81.1980938545381,
        "RAAN(deg)": 304.99957995086027,
        "Satellite Name": "Test1 1359",
        "Satellite Number": 1359,
        "Semi-Major Axis(m)": 6980739.136638005,
        "Time(s)": 10
    }
]